CCSDS_OMM_VERS = 2.0
CREATION_DATE  = 
ORIGINATOR     = 

OBJECT_NAME    = SL-3 R/B
OBJECT_ID      = 1982-079B
CENTER_NAME    = EARTH
REF_FRAME      = TEME
TIME_SYSTEM    = UTC
MEAN_ELEMENT_THEORY = SGP/SGP4

EPOCH          = 2026-03-09T19:09:18.534816
MEAN_MOTION    = 15.24803216
ECCENTRICITY   = .0025044
INCLINATION    = 81.1481
RA_OF_ASC_NODE = 192.9488
ARG_OF_PERICENTER = 164.5089
MEAN_ANOMALY   = 195.6917

EPHEMERIS_TYPE = 0
CLASSIFICATION_TYPE = U
NORAD_CAT_ID   = 13403
ELEMENT_SET_NO = 999
REV_AT_EPOCH   = 37771
BSTAR          = .3275E-3
MEAN_MOTION_DOT = .8223E-4
MEAN_MOTION_DDOT = 0

CCSDS_OMM_VERS = 2.0
CREATION_DATE  = 
ORIGINATOR     = 

OBJECT_NAME    = SL-14 R/B
OBJECT_ID      = 1982-092B
CENTER_NAME    = EARTH
REF_FRAME      = TEME
TIME_SYSTEM    = UTC
MEAN_ELEMENT_THEORY = SGP/SGP4

EPOCH          = 2026-03-09T17:18:39.149280
MEAN_MOTION    = 14.86666375
ECCENTRICITY   = .0019004
INCLINATION    = 82.5695
RA_OF_ASC_NODE = 141.3700
ARG_OF_PERICENTER = 303.4428
MEAN_ANOMALY   = 173.5553

EPHEMERIS_TYPE = 0
CLASSIFICATION_TYPE = U
NORAD_CAT_ID   = 13553
ELEMENT_SET_NO = 999
REV_AT_EPOCH   = 32893
BSTAR          = .61218E-4
MEAN_MOTION_DOT = .569E-5
MEAN_MOTION_DDOT = 0

CCSDS_OMM_VERS = 2.0
CREATION_DATE  = 
ORIGINATOR     = 

OBJECT_NAME    = SL-3 R/B
OBJECT_ID      = 1983-010B
CENTER_NAME    = EARTH
REF_FRAME      = TEME
TIME_SYSTEM    = UTC
MEAN_ELEMENT_THEORY = SGP/SGP4

EPOCH          = 2026-03-09T21:22:10.612704
MEAN_MOTION    = 15.46365595
ECCENTRICITY   = .0017954
INCLINATION    = 81.1060
RA_OF_ASC_NODE = 2.0014
ARG_OF_PERICENTER = 50.5381
MEAN_ANOMALY   = 309.7449

EPHEMERIS_TYPE = 0
CLASSIFICATION_TYPE = U
NORAD_CAT_ID   = 13819
ELEMENT_SET_NO = 999
REV_AT_EPOCH   = 35797
BSTAR          = .39061E-3
MEAN_MOTION_DOT = .19461E-3
MEAN_MOTION_DDOT = 0

CCSDS_OMM_VERS = 2.0
CREATION_DATE  = 
ORIGINATOR     = 

OBJECT_NAME    = SL-3 R/B
OBJECT_ID      = 1983-075B
CENTER_NAME    = EARTH
REF_FRAME      = TEME
TIME_SYSTEM    = UTC
MEAN_ELEMENT_THEORY = SGP/SGP4

EPOCH          = 2026-03-09T19:36:45.261792
MEAN_MOTION    = 15.38421510
ECCENTRICITY   = .0020136
INCLINATION    = 97.6147
RA_OF_ASC_NODE = 73.3991
ARG_OF_PERICENTER = 225.3907
MEAN_ANOMALY   = 134.5696

EPHEMERIS_TYPE = 0
CLASSIFICATION_TYPE = U
NORAD_CAT_ID   = 14208
ELEMENT_SET_NO = 999
REV_AT_EPOCH   = 33017
BSTAR          = .34896E-3
MEAN_MOTION_DOT = .13233E-3
MEAN_MOTION_DDOT = 0

CCSDS_OMM_VERS = 2.0
CREATION_DATE  = 
ORIGINATOR     = 

OBJECT_NAME    = COSMOS 1536
OBJECT_ID      = 1984-013A
CENTER_NAME    = EARTH
REF_FRAME      = TEME
TIME_SYSTEM    = UTC
MEAN_ELEMENT_THEORY = SGP/SGP4

EPOCH          = 2026-03-09T12:33:00.332064
MEAN_MOTION    = 15.23821576
ECCENTRICITY   = .00124739
INCLINATION    = 82.5428
RA_OF_ASC_NODE = 108.0163
ARG_OF_PERICENTER = 284.1309
MEAN_ANOMALY   = 75.8542

EPHEMERIS_TYPE = 0
CLASSIFICATION_TYPE = U
NORAD_CAT_ID   = 14699
ELEMENT_SET_NO = 999
REV_AT_EPOCH   = 27259
BSTAR          = .29910457E-3
MEAN_MOTION_DOT = .7251E-4
MEAN_MOTION_DDOT = 0

CCSDS_OMM_VERS = 2.0
CREATION_DATE  = 
ORIGINATOR     = 

OBJECT_NAME    = SL-14 R/B
OBJECT_ID      = 1984-027B
CENTER_NAME    = EARTH
REF_FRAME      = TEME
TIME_SYSTEM    = UTC
MEAN_ELEMENT_THEORY = SGP/SGP4

EPOCH          = 2026-03-09T19:52:03.692064
MEAN_MOTION    = 14.85976583
ECCENTRICITY   = .0017332
INCLINATION    = 82.5387
RA_OF_ASC_NODE = 244.8830
ARG_OF_PERICENTER = 337.3800
MEAN_ANOMALY   = 22.6651

EPHEMERIS_TYPE = 0
CLASSIFICATION_TYPE = U
NORAD_CAT_ID   = 14820
ELEMENT_SET_NO = 999
REV_AT_EPOCH   = 24765
BSTAR          = .71145E-4
MEAN_MOTION_DOT = .647E-5
MEAN_MOTION_DDOT = 0

CCSDS_OMM_VERS = 2.0
CREATION_DATE  = 
ORIGINATOR     = 

OBJECT_NAME    = SL-8 R/B
OBJECT_ID      = 1985-006B
CENTER_NAME    = EARTH
REF_FRAME      = TEME
TIME_SYSTEM    = UTC
MEAN_ELEMENT_THEORY = SGP/SGP4

EPOCH          = 2026-03-09T20:59:31.178688
MEAN_MOTION    = 14.37782990
ECCENTRICITY   = .0018456
INCLINATION    = 74.0433
RA_OF_ASC_NODE = 260.8081
ARG_OF_PERICENTER = 178.6171
MEAN_ANOMALY   = 283.6883

EPHEMERIS_TYPE = 0
CLASSIFICATION_TYPE = U
NORAD_CAT_ID   = 15483
ELEMENT_SET_NO = 999
REV_AT_EPOCH   = 15405
BSTAR          = .12763E-3
MEAN_MOTION_DOT = .359E-5
MEAN_MOTION_DDOT = 0

CCSDS_OMM_VERS = 2.0
CREATION_DATE  = 
ORIGINATOR     = 

OBJECT_NAME    = SL-12 R/B(2)
OBJECT_ID      = 1985-042D
CENTER_NAME    = EARTH
REF_FRAME      = TEME
TIME_SYSTEM    = UTC
MEAN_ELEMENT_THEORY = SGP/SGP4

EPOCH          = 2026-03-09T12:01:15.473856
MEAN_MOTION    = 14.21982311
ECCENTRICITY   = .00332559
INCLINATION    = 71.1062
RA_OF_ASC_NODE = 88.1277
ARG_OF_PERICENTER = 128.4726
MEAN_ANOMALY   = 23.4074

EPHEMERIS_TYPE = 0
CLASSIFICATION_TYPE = U
NORAD_CAT_ID   = 15772
ELEMENT_SET_NO = 999
REV_AT_EPOCH   = 11436
BSTAR          = .38313498E-4
MEAN_MOTION_DOT = .38E-6
MEAN_MOTION_DDOT = 0

CCSDS_OMM_VERS = 2.0
CREATION_DATE  = 
ORIGINATOR     = 

OBJECT_NAME    = SL-14 R/B
OBJECT_ID      = 1985-069B
CENTER_NAME    = EARTH
REF_FRAME      = TEME
TIME_SYSTEM    = UTC
MEAN_ELEMENT_THEORY = SGP/SGP4

EPOCH          = 2026-03-09T21:07:01.595712
MEAN_MOTION    = 14.86433417
ECCENTRICITY   = .0018487
INCLINATION    = 82.5285
RA_OF_ASC_NODE = 24.7540
ARG_OF_PERICENTER = 187.0505
MEAN_ANOMALY   = 173.0455

EPHEMERIS_TYPE = 0
CLASSIFICATION_TYPE = U
NORAD_CAT_ID   = 15945
ELEMENT_SET_NO = 999
REV_AT_EPOCH   = 17286
BSTAR          = .78191E-4
MEAN_MOTION_DOT = .717E-5
MEAN_MOTION_DDOT = 0

CCSDS_OMM_VERS = 2.0
CREATION_DATE  = 
ORIGINATOR     = 

OBJECT_NAME    = SL-16 R/B
OBJECT_ID      = 1985-097B
CENTER_NAME    = EARTH
REF_FRAME      = TEME
TIME_SYSTEM    = UTC
MEAN_ELEMENT_THEORY = SGP/SGP4

EPOCH          = 2026-03-09T15:26:02.448096
MEAN_MOTION    = 14.16598844
ECCENTRICITY   = .0009922
INCLINATION    = 71.0028
RA_OF_ASC_NODE = 140.6527
ARG_OF_PERICENTER = 259.8779
MEAN_ANOMALY   = 209.8797

EPHEMERIS_TYPE = 0
CLASSIFICATION_TYPE = U
NORAD_CAT_ID   = 16182
ELEMENT_SET_NO = 999
REV_AT_EPOCH   = 8722
BSTAR          = -.73507E-4
MEAN_MOTION_DOT = -.195E-5
MEAN_MOTION_DDOT = 0

CCSDS_OMM_VERS = 2.0
CREATION_DATE  = 
ORIGINATOR     = 

OBJECT_NAME    = SL-14 R/B
OBJECT_ID      = 1986-006B
CENTER_NAME    = EARTH
REF_FRAME      = TEME
TIME_SYSTEM    = UTC
MEAN_ELEMENT_THEORY = SGP/SGP4

EPOCH          = 2026-03-09T14:06:16.763328
MEAN_MOTION    = 14.86814645
ECCENTRICITY   = .0075052
INCLINATION    = 82.5233
RA_OF_ASC_NODE = 259.8333
ARG_OF_PERICENTER = 273.1411
MEAN_ANOMALY   = 86.1221

EPHEMERIS_TYPE = 0
CLASSIFICATION_TYPE = U
NORAD_CAT_ID   = 16496
ELEMENT_SET_NO = 999
REV_AT_EPOCH   = 14919
BSTAR          = .83607E-4
MEAN_MOTION_DOT = .809E-5
MEAN_MOTION_DDOT = 0

CCSDS_OMM_VERS = 2.0
CREATION_DATE  = 
ORIGINATOR     = 

OBJECT_NAME    = COSMOS 1743
OBJECT_ID      = 1986-034A
CENTER_NAME    = EARTH
REF_FRAME      = TEME
TIME_SYSTEM    = UTC
MEAN_ELEMENT_THEORY = SGP/SGP4

EPOCH          = 2026-03-09T10:47:12.341760
MEAN_MOTION    = 15.58526486
ECCENTRICITY   = .0001656
INCLINATION    = 82.5296
RA_OF_ASC_NODE = 74.0830
ARG_OF_PERICENTER = 296.6457
MEAN_ANOMALY   = 63.4629

EPHEMERIS_TYPE = 0
CLASSIFICATION_TYPE = U
NORAD_CAT_ID   = 16719
ELEMENT_SET_NO = 999
REV_AT_EPOCH   = 18021
BSTAR          = .44928259E-3
MEAN_MOTION_DOT = .34437E-3
MEAN_MOTION_DDOT = 0

