SL-3 R/B                
1 13403U 82079B   26068.79813119  .00008223  00000+0  32750-3 0  9992
2 13403  81.1481 192.9488 0025044 164.5089 195.6917 15.24803216377710
SL-14 R/B               
1 13553U 82092B   26068.72128645  .00000569  00000+0  61218-4 0  9996
2 13553  82.5695 141.3700 0019004 303.4428 173.5553 14.86666375328934
SL-3 R/B                
1 13819U 83010B   26068.89040061  .00019461  00000+0  39061-3 0  9996
2 13819  81.1060   2.0014 0017954  50.5381 309.7449 15.46365595357971
SL-3 R/B                
1 14208U 83075B   26068.81719053  .00013233  00000+0  34896-3 0  9998
2 14208  97.6147  73.3991 0020136 225.3907 134.5696 15.38421510330171
COSMOS 1536             
1 14699U 84013A   26068.52292051  .00007251  00000+0  29910-3 0  9991
2 14699  82.5428 108.0163 0012473 284.1309  75.8542 15.23821576272599
SL-14 R/B               
1 14820U 84027B   26068.82782051  .00000647  00000+0  71145-4 0  9999
2 14820  82.5387 244.8830 0017332 337.3800  22.6651 14.85976583247651
SL-8 R/B                
1 15483U 85006B   26068.87466642  .00000359  00000+0  12763-3 0  9993
2 15483  74.0433 260.8081 0018456 178.6171 283.6883 14.37782990154057
SL-12 R/B(2)            
1 15772U 85042D   26068.50087354  .00000038  00000+0  38313-4 0  9997
2 15772  71.1062  88.1277 0033255 128.4726  23.4074 14.21982311114369
SL-14 R/B               
1 15945U 85069B   26068.87987958  .00000717  00000+0  78191-4 0  9999
2 15945  82.5285  24.7540 0018487 187.0505 173.0455 14.86433417172862
SL-16 R/B               
1 16182U 85097B   26068.64308389 -.00000195  00000+0 -73507-4 0  9992
2 16182  71.0028 140.6527 0009922 259.8779 209.8797 14.16598844 87223
SL-14 R/B               
1 16496U 86006B   26068.58769402  .00000809  00000+0  83607-4 0  9993
2 16496  82.5233 259.8333 0075052 273.1411  86.1221 14.86814645149193
COSMOS 1743             
1 16719U 86034A   26068.44944840  .00034437  00000+0  44928-3 0  9994
2 16719  82.5296  74.0830 0001656 296.6457  63.4629 15.58526486180219
